ONEWEB-0527             
1 54642U 22166A   26009.28396726  .00000035  00000+0  53729-4 0  9995
2 54642  87.9224 275.6969 0001554  75.6569 284.4737 13.21827253150546
ONEWEB-0528             
1 54643U 22166B   26009.29055978  .00000095  00000+0  19731-3 0  9998
2 54643  87.9225 275.6994 0001550  72.3364 287.7939 13.21827257150554
ONEWEB-0539             
1 54644U 22166C   26009.25269699 -.00000015  00000+0 -67827-4 0  9996
2 54644  87.9224 275.6723 0001777  70.6200 289.5126 13.21824152150543
ONEWEB-0540             
1 54645U 22166D   26009.25942524  .00000017  00000+0  87946-5 0  9997
2 54645  87.9221 275.7086 0001776  77.0162 283.1170 13.21827603150533
ONEWEB-0542             
1 54646U 22166E   26009.26258228 -.00000009  00000+0 -52480-4 0  9997
2 54646  87.9220 275.6658 0002012  74.8504 285.2852 13.21824434150546
ONEWEB-0545             
1 54647U 22166F   26009.22802775  .00000499  00000+0  11779-2 0  9991
2 54647  87.9229 275.6945 0001992  81.5692 278.5667 13.21821821150506
ONEWEB-0580             
1 54648U 22166G   26009.27739348  .00000001  00000+0 -30008-4 0  9990
2 54648  87.9224 275.6835 0001981  80.4122 279.7236 13.21828811150550
ONEWEB-0582             
1 54649U 22166H   26009.24447800  .00000070  00000+0  13757-3 0  9993
2 54649  87.9225 275.6832 0002114  76.8552 283.2818 13.21825209150525
ONEWEB-0583             
1 54650U 22166J   26009.25599585  .00000073  00000+0  14616-3 0  9992
2 54650  87.9223 275.7049 0001740  73.1487 286.9838 13.21824486150536
ONEWEB-0584             
1 54651U 22166K   26009.27575468 -.00000002  00000+0 -36721-4 0  9995
2 54651  87.9224 275.6880 0001944  80.9284 279.2070 13.21825614150523
ONEWEB-0585             
1 54652U 22166L   26009.22472968  .00000097  00000+0  20384-3 0  9991
2 54652  87.9224 275.6826 0001500  76.2964 283.8337 13.21827830150524
ONEWEB-0586             
1 54653U 22166M   26009.16220104  .00000111  00000+0  23650-3 0  9994
2 54653  87.9222 275.7203 0001777  74.7489 285.3841 13.21827646150515
ONEWEB-0587             
1 54654U 22166N   26009.24776511  .00000073  00000+0  14574-3 0  9994
2 54654  87.9233 275.6618 0001228  77.1915 282.9356 13.21825094150686
ONEWEB-0589             
1 54655U 22166P   26009.23460250  .00000088  00000+0  18131-3 0  9993
2 54655  87.9223 275.6962 0002436  82.8567 277.2844 13.21824981150544
ONEWEB-0590             
1 54656U 22166Q   26009.25914790 -.00000023  00000+0 -87985-4 0  9994
2 54656  87.9225 275.6688 0001575  91.6107 268.5207 13.21824969150534
ONEWEB-0591             
1 54657U 22166R   26009.27080199  .00000008  00000+0 -12772-4 0  9998
2 54657  87.9221 275.6895 0001704  79.5408 280.5918 13.21827518150563
ONEWEB-0592             
1 54658U 22166S   26009.27408621  .00000007  00000+0 -13784-4 0  9996
2 54658  87.9232 275.6544 0001690  78.4509 281.6815 13.21828414150442
