[{"OBJECT_NAME":"ONEWEB-0527","OBJECT_ID":"2022-166A","EPOCH":"2026-01-09T06:48:54.771264","MEAN_MOTION":13.21827253,"ECCENTRICITY":0.00015547,"INCLINATION":87.9224,"RA_OF_ASC_NODE":275.6969,"ARG_OF_PERICENTER":75.6569,"MEAN_ANOMALY":284.4737,"EPHEMERIS_TYPE":0,"CLASSIFICATION_TYPE":"U","NORAD_CAT_ID":54642,"ELEMENT_SET_NO":999,"REV_AT_EPOCH":15054,"BSTAR":5.3728856e-5,"MEAN_MOTION_DOT":3.5e-7,"MEAN_MOTION_DDOT":0},{"OBJECT_NAME":"ONEWEB-0528","OBJECT_ID":"2022-166B","EPOCH":"2026-01-09T06:58:24.364992","MEAN_MOTION":13.21827257,"ECCENTRICITY":0.00015501,"INCLINATION":87.9225,"RA_OF_ASC_NODE":275.6994,"ARG_OF_PERICENTER":72.3364,"MEAN_ANOMALY":287.7939,"EPHEMERIS_TYPE":0,"CLASSIFICATION_TYPE":"U","NORAD_CAT_ID":54643,"ELEMENT_SET_NO":999,"REV_AT_EPOCH":15055,"BSTAR":0.00019731194,"MEAN_MOTION_DOT":9.5e-7,"MEAN_MOTION_DDOT":0},{"OBJECT_NAME":"ONEWEB-0539","OBJECT_ID":"2022-166C","EPOCH":"2026-01-09T06:03:53.019936","MEAN_MOTION":13.21824152,"ECCENTRICITY":0.0001777,"INCLINATION":87.9224,"RA_OF_ASC_NODE":275.6723,"ARG_OF_PERICENTER":70.62,"MEAN_ANOMALY":289.5126,"EPHEMERIS_TYPE":0,"CLASSIFICATION_TYPE":"U","NORAD_CAT_ID":54644,"ELEMENT_SET_NO":999,"REV_AT_EPOCH":15054,"BSTAR":-6.7827157e-5,"MEAN_MOTION_DOT":-1.5e-7,"MEAN_MOTION_DDOT":0},{"OBJECT_NAME":"ONEWEB-0540","OBJECT_ID":"2022-166D","EPOCH":"2026-01-09T06:13:34.340736","MEAN_MOTION":13.21827603,"ECCENTRICITY":0.00017762,"INCLINATION":87.9221,"RA_OF_ASC_NODE":275.7086,"ARG_OF_PERICENTER":77.0162,"MEAN_ANOMALY":283.117,"EPHEMERIS_TYPE":0,"CLASSIFICATION_TYPE":"U","NORAD_CAT_ID":54645,"ELEMENT_SET_NO":999,"REV_AT_EPOCH":15053,"BSTAR":8.794612e-6,"MEAN_MOTION_DOT":1.7e-7,"MEAN_MOTION_DDOT":0},{"OBJECT_NAME":"ONEWEB-0542","OBJECT_ID":"2022-166E","EPOCH":"2026-01-09T06:18:07.108992","MEAN_MOTION":13.21824434,"ECCENTRICITY":0.00020129,"INCLINATION":87.922,"RA_OF_ASC_NODE":275.6658,"ARG_OF_PERICENTER":74.8504,"MEAN_ANOMALY":285.2852,"EPHEMERIS_TYPE":0,"CLASSIFICATION_TYPE":"U","NORAD_CAT_ID":54646,"ELEMENT_SET_NO":999,"REV_AT_EPOCH":15054,"BSTAR":-5.2480342e-5,"MEAN_MOTION_DOT":-9.0e-8,"MEAN_MOTION_DDOT":0},{"OBJECT_NAME":"ONEWEB-0545","OBJECT_ID":"2022-166F","EPOCH":"2026-01-09T05:28:21.597600","MEAN_MOTION":13.21821821,"ECCENTRICITY":0.00019923,"INCLINATION":87.9229,"RA_OF_ASC_NODE":275.6945,"ARG_OF_PERICENTER":81.5692,"MEAN_ANOMALY":278.5667,"EPHEMERIS_TYPE":0,"CLASSIFICATION_TYPE":"U","NORAD_CAT_ID":54647,"ELEMENT_SET_NO":999,"REV_AT_EPOCH":15050,"BSTAR":0.0011778777,"MEAN_MOTION_DOT":4.99e-6,"MEAN_MOTION_DDOT":0},{"OBJECT_NAME":"ONEWEB-0580","OBJECT_ID":"2022-166G","EPOCH":"2026-01-09T06:39:26.796672","MEAN_MOTION":13.21828811,"ECCENTRICITY":0.00019816,"INCLINATION":87.9224,"RA_OF_ASC_NODE":275.6835,"ARG_OF_PERICENTER":80.4122,"MEAN_ANOMALY":279.7236,"EPHEMERIS_TYPE":0,"CLASSIFICATION_TYPE":"U","NORAD_CAT_ID":54648,"ELEMENT_SET_NO":999,"REV_AT_EPOCH":15055,"BSTAR":-3.0007699e-5,"MEAN_MOTION_DOT":1.0e-8,"MEAN_MOTION_DDOT":0},{"OBJECT_NAME":"ONEWEB-0582","OBJECT_ID":"2022-166H","EPOCH":"2026-01-09T05:52:02.899200","MEAN_MOTION":13.21825209,"ECCENTRICITY":0.0002114,"INCLINATION":87.9225,"RA_OF_ASC_NODE":275.6832,"ARG_OF_PERICENTER":76.8552,"MEAN_ANOMALY":283.2818,"EPHEMERIS_TYPE":0,"CLASSIFICATION_TYPE":"U","NORAD_CAT_ID":54649,"ELEMENT_SET_NO":999,"REV_AT_EPOCH":15052,"BSTAR":0.0001375653,"MEAN_MOTION_DOT":7.0e-7,"MEAN_MOTION_DDOT":0},{"OBJECT_NAME":"ONEWEB-0583","OBJECT_ID":"2022-166J","EPOCH":"2026-01-09T06:08:38.041440","MEAN_MOTION":13.21824486,"ECCENTRICITY":0.00017401,"INCLINATION":87.9223,"RA_OF_ASC_NODE":275.7049,"ARG_OF_PERICENTER":73.1487,"MEAN_ANOMALY":286.9838,"EPHEMERIS_TYPE":0,"CLASSIFICATION_TYPE":"U","NORAD_CAT_ID":54650,"ELEMENT_SET_NO":999,"REV_AT_EPOCH":15053,"BSTAR":0.00014616287,"MEAN_MOTION_DOT":7.3e-7,"MEAN_MOTION_DDOT":0},{"OBJECT_NAME":"ONEWEB-0584","OBJECT_ID":"2022-166K","EPOCH":"2026-01-09T06:37:05.204352","MEAN_MOTION":13.21825614,"ECCENTRICITY":0.00019442,"INCLINATION":87.9224,"RA_OF_ASC_NODE":275.688,"ARG_OF_PERICENTER":80.9284,"MEAN_ANOMALY":279.207,"EPHEMERIS_TYPE":0,"CLASSIFICATION_TYPE":"U","NORAD_CAT_ID":54651,"ELEMENT_SET_NO":999,"REV_AT_EPOCH":15052,"BSTAR":-3.6720515e-5,"MEAN_MOTION_DOT":-2.0e-8,"MEAN_MOTION_DDOT":0},{"OBJECT_NAME":"ONEWEB-0585","OBJECT_ID":"2022-166L","EPOCH":"2026-01-09T05:23:36.644352","MEAN_MOTION":13.2182783,"ECCENTRICITY":0.00015008,"INCLINATION":87.9224,"RA_OF_ASC_NODE":275.6826,"ARG_OF_PERICENTER":76.2964,"MEAN_ANOMALY":283.8337,"EPHEMERIS_TYPE":0,"CLASSIFICATION_TYPE":"U","NORAD_CAT_ID":54652,"ELEMENT_SET_NO":999,"REV_AT_EPOCH":15052,"BSTAR":0.00020384268,"MEAN_MOTION_DOT":9.7e-7,"MEAN_MOTION_DDOT":0},{"OBJECT_NAME":"ONEWEB-0586","OBJECT_ID":"2022-166M","EPOCH":"2026-01-09T03:53:34.169856","MEAN_MOTION":13.21827646,"ECCENTRICITY":0.00017777,"INCLINATION":87.9222,"RA_OF_ASC_NODE":275.7203,"ARG_OF_PERICENTER":74.7489,"MEAN_ANOMALY":285.3841,"EPHEMERIS_TYPE":0,"CLASSIFICATION_TYPE":"U","NORAD_CAT_ID":54653,"ELEMENT_SET_NO":999,"REV_AT_EPOCH":15051,"BSTAR":0.00023650411,"MEAN_MOTION_DOT":1.11e-6,"MEAN_MOTION_DDOT":0},{"OBJECT_NAME":"ONEWEB-0587","OBJECT_ID":"2022-166N","EPOCH":"2026-01-09T05:56:46.905504","MEAN_MOTION":13.21825094,"ECCENTRICITY":0.00012289,"INCLINATION":87.9233,"RA_OF_ASC_NODE":275.6618,"ARG_OF_PERICENTER":77.1915,"MEAN_ANOMALY":282.9356,"EPHEMERIS_TYPE":0,"CLASSIFICATION_TYPE":"U","NORAD_CAT_ID":54654,"ELEMENT_SET_NO":999,"REV_AT_EPOCH":15068,"BSTAR":0.00014573948,"MEAN_MOTION_DOT":7.3e-7,"MEAN_MOTION_DDOT":0},{"OBJECT_NAME":"ONEWEB-0589","OBJECT_ID":"2022-166P","EPOCH":"2026-01-09T05:37:49.656000","MEAN_MOTION":13.21824981,"ECCENTRICITY":0.00024367,"INCLINATION":87.9223,"RA_OF_ASC_NODE":275.6962,"ARG_OF_PERICENTER":82.8567,"MEAN_ANOMALY":277.2844,"EPHEMERIS_TYPE":0,"CLASSIFICATION_TYPE":"U","NORAD_CAT_ID":54655,"ELEMENT_SET_NO":999,"REV_AT_EPOCH":15054,"BSTAR":0.00018131121,"MEAN_MOTION_DOT":8.8e-7,"MEAN_MOTION_DDOT":0},{"OBJECT_NAME":"ONEWEB-0590","OBJECT_ID":"2022-166Q","EPOCH":"2026-01-09T06:13:10.378560","MEAN_MOTION":13.21824969,"ECCENTRICITY":0.00015751,"INCLINATION":87.9225,"RA_OF_ASC_NODE":275.6688,"ARG_OF_PERICENTER":91.6107,"MEAN_ANOMALY":268.5207,"EPHEMERIS_TYPE":0,"CLASSIFICATION_TYPE":"U","NORAD_CAT_ID":54656,"ELEMENT_SET_NO":999,"REV_AT_EPOCH":15053,"BSTAR":-8.7985369e-5,"MEAN_MOTION_DOT":-2.3e-7,"MEAN_MOTION_DDOT":0},{"OBJECT_NAME":"ONEWEB-0591","OBJECT_ID":"2022-166R","EPOCH":"2026-01-09T06:29:57.291936","MEAN_MOTION":13.21827518,"ECCENTRICITY":0.00017046,"INCLINATION":87.9221,"RA_OF_ASC_NODE":275.6895,"ARG_OF_PERICENTER":79.5408,"MEAN_ANOMALY":280.5918,"EPHEMERIS_TYPE":0,"CLASSIFICATION_TYPE":"U","NORAD_CAT_ID":54657,"ELEMENT_SET_NO":999,"REV_AT_EPOCH":15056,"BSTAR":-1.2772084e-5,"MEAN_MOTION_DOT":8.0e-8,"MEAN_MOTION_DDOT":0},{"OBJECT_NAME":"ONEWEB-0592","OBJECT_ID":"2022-166S","EPOCH":"2026-01-09T06:34:41.048544","MEAN_MOTION":13.21828414,"ECCENTRICITY":0.00016906,"INCLINATION":87.9232,"RA_OF_ASC_NODE":275.6544,"ARG_OF_PERICENTER":78.4509,"MEAN_ANOMALY":281.6815,"EPHEMERIS_TYPE":0,"CLASSIFICATION_TYPE":"U","NORAD_CAT_ID":54658,"ELEMENT_SET_NO":999,"REV_AT_EPOCH":15044,"BSTAR":-1.3783686e-5,"MEAN_MOTION_DOT":7.0e-8,"MEAN_MOTION_DDOT":0}]
